TIANMU-1 07             
1 57399U 23101A   26065.57454230  .00008352  00000+0  29795-3 0  9991
2 57399  97.2728 118.5929 0004609 142.4105 217.7458 15.29118809145964
STARLINK-32663          
1 62197U 24229F   26068.92720351  .00028095  00000+0  10258-2 0  9996
2 62197  43.0011 269.7238 0001419 304.4278  55.6440 15.27604752 70590
